start=new Date('2022-04-21T00:00:00.000Z').valueOf();
sats=[{"TLE_LINE1":"1 47363U 21005Q   22110.87495744 -.00001128  00000-0 -56840-4 0  9996","APOAPSIS":"548.149","REF_FRAME":"TEME","DECAY_DATE":null,"MEAN_MOTION":"15.06414399","OBJECT_TYPE":"PAYLOAD","CENTER_NAME":"EARTH","LAUNCH_DATE":"2021-01-20","COUNTRY_CODE":"US","CLASSIFICATION_TYPE":"U","PERIAPSIS":"546.190","OBJECT_NAME":"STARLINK-2077","TLE_LINE2":"2 47363  53.0548 310.9146 0001414  85.2773 274.8377 15.06414399 69191","MEAN_ELEMENT_THEORY":"SGP4","MEAN_MOTION_DDOT":"0.0000000000000","ELEMENT_SET_NO":"999","TIME_SYSTEM":"UTC","EPOCH":"2022-04-20T20:59:56.322816","GP_ID":"201712944","OBJECT_ID":"2021-005Q","SEMIMAJOR_AXIS":"6925.304","MEAN_MOTION_DOT":"-0.00001128","SITE":"AFETR","RCS_SIZE":"LARGE","INCLINATION":"53.0548","RA_OF_ASC_NODE":"310.9146","MEAN_ANOMALY":"274.8377","ARG_OF_PERICENTER":"85.2773","REV_AT_EPOCH":"6919","FILE":"3409979","PERIOD":"95.591","NORAD_CAT_ID":"47363","EPHEMERIS_TYPE":"0","BSTAR":"-0.00005684000000","ECCENTRICITY":"0.00014140"},{"GP_ID":"201680303","SITE":"AFETR","MEAN_MOTION_DOT":"-0.00015306","RCS_SIZE":"LARGE","SEMIMAJOR_AXIS":"6717.737","OBJECT_ID":"2021-005S","INCLINATION":"53.0333","MEAN_ANOMALY":"87.4672","RA_OF_ASC_NODE":"119.4210","ARG_OF_PERICENTER":"272.5425","REV_AT_EPOCH":"7183","NORAD_CAT_ID":"47365","PERIOD":"91.326","FILE":"3409639","EPHEMERIS_TYPE":"0","BSTAR":"-0.00008922700000","ECCENTRICITY":"0.00080550","TLE_LINE1":"1 47365U 21005S   22110.45507520 -.00015306  00000-0 -89227-4 0  9996","REF_FRAME":"TEME","APOAPSIS":"345.013","DECAY_DATE":null,"MEAN_MOTION":"15.76769825","CENTER_NAME":"EARTH","LAUNCH_DATE":"2021-01-20","OBJECT_TYPE":"PAYLOAD","TLE_LINE2":"2 47365  53.0333 119.4210 0008055 272.5425  87.4672 15.76769825 71836","OBJECT_NAME":"STARLINK-2080","COUNTRY_CODE":"US","CLASSIFICATION_TYPE":"U","PERIAPSIS":"334.191","MEAN_ELEMENT_THEORY":"SGP4","MEAN_MOTION_DDOT":"0.0000000000000","ELEMENT_SET_NO":"999","EPOCH":"2022-04-20T10:55:18.497280","TIME_SYSTEM":"UTC"},{"TLE_LINE1":"1 47366U 21005T   22110.83441221 -.00000939  00000-0 -44129-4 0  9992","APOAPSIS":"548.427","REF_FRAME":"TEME","DECAY_DATE":null,"MEAN_MOTION":"15.06399424","CENTER_NAME":"EARTH","LAUNCH_DATE":"2021-01-20","OBJECT_TYPE":"PAYLOAD","TLE_LINE2":"2 47366  53.0550 311.1135 0001749  64.9924 295.1246 15.06399424 69182","OBJECT_NAME":"STARLINK-2081","COUNTRY_CODE":"US","CLASSIFICATION_TYPE":"U","PERIAPSIS":"546.004","MEAN_ELEMENT_THEORY":"SGP4","MEAN_MOTION_DDOT":"0.0000000000000","ELEMENT_SET_NO":"999","TIME_SYSTEM":"UTC","EPOCH":"2022-04-20T20:01:33.214944","GP_ID":"201713946","SITE":"AFETR","RCS_SIZE":"LARGE","MEAN_MOTION_DOT":"-0.00000939","SEMIMAJOR_AXIS":"6925.350","OBJECT_ID":"2021-005T","INCLINATION":"53.0550","MEAN_ANOMALY":"295.1246","RA_OF_ASC_NODE":"311.1135","ARG_OF_PERICENTER":"64.9924","REV_AT_EPOCH":"6918","NORAD_CAT_ID":"47366","PERIOD":"95.592","FILE":"3409979","EPHEMERIS_TYPE":"0","BSTAR":"-0.00004412900000","ECCENTRICITY":"0.00017490"},{"BSTAR":"-0.00005420800000","ECCENTRICITY":"0.00016270","NORAD_CAT_ID":"47367","PERIOD":"95.592","FILE":"3409750","EPHEMERIS_TYPE":"0","RA_OF_ASC_NODE":"311.0042","MEAN_ANOMALY":"296.6091","INCLINATION":"53.0539","REV_AT_EPOCH":"6919","ARG_OF_PERICENTER":"63.5065","GP_ID":"201687057","MEAN_MOTION_DOT":"-0.00001089","SITE":"AFETR","RCS_SIZE":"LARGE","OBJECT_ID":"2021-005U","SEMIMAJOR_AXIS":"6925.353","MEAN_MOTION_DDOT":"0.0000000000000","EPOCH":"2022-04-20T20:38:42.652896","TIME_SYSTEM":"UTC","ELEMENT_SET_NO":"999","OBJECT_NAME":"STARLINK-2082","TLE_LINE2":"2 47367  53.0539 311.0042 0001627  63.5065 296.6091 15.06398489 69197","COUNTRY_CODE":"US","PERIAPSIS":"546.091","CLASSIFICATION_TYPE":"U","MEAN_ELEMENT_THEORY":"SGP4","MEAN_MOTION":"15.06398489","LAUNCH_DATE":"2021-01-20","CENTER_NAME":"EARTH","OBJECT_TYPE":"PAYLOAD","TLE_LINE1":"1 47367U 21005U   22110.86021589 -.00001089  00000-0 -54208-4 0  9993","DECAY_DATE":null,"REF_FRAME":"TEME","APOAPSIS":"548.345"},{"BSTAR":"-0.00032825000000","ECCENTRICITY":"0.00013400","FILE":"3409979","PERIOD":"95.591","NORAD_CAT_ID":"47368","EPHEMERIS_TYPE":"0","MEAN_ANOMALY":"295.3567","RA_OF_ASC_NODE":"311.0167","INCLINATION":"53.0545","REV_AT_EPOCH":"6919","ARG_OF_PERICENTER":"64.7561","GP_ID":"201713445","OBJECT_ID":"2021-005V","SEMIMAJOR_AXIS":"6925.317","SITE":"AFETR","MEAN_MOTION_DOT":"-0.00005169","RCS_SIZE":"LARGE","MEAN_MOTION_DDOT":"0.0000000000000","TIME_SYSTEM":"UTC","EPOCH":"2022-04-20T20:28:05.229984","ELEMENT_SET_NO":"999","CLASSIFICATION_TYPE":"U","COUNTRY_CODE":"US","PERIAPSIS":"546.254","OBJECT_NAME":"STARLINK-2084","TLE_LINE2":"2 47368  53.0545 311.0167 0001340  64.7561 295.3567 15.06410367 69193","MEAN_ELEMENT_THEORY":"SGP4","MEAN_MOTION":"15.06410367","OBJECT_TYPE":"PAYLOAD","LAUNCH_DATE":"2021-01-20","CENTER_NAME":"EARTH","TLE_LINE1":"1 47368U 21005V   22110.85283831 -.00005169  00000-0 -32825-3 0  9996","DECAY_DATE":null,"REF_FRAME":"TEME","APOAPSIS":"548.110"},{"REV_AT_EPOCH":"6946","ARG_OF_PERICENTER":"66.5241","RA_OF_ASC_NODE":"291.3080","MEAN_ANOMALY":"293.5919","INCLINATION":"53.0530","MEAN_MOTION_DOT":"-0.00002761","SITE":"AFETR","RCS_SIZE":"LARGE","OBJECT_ID":"2021-005W","SEMIMAJOR_AXIS":"6925.352","GP_ID":"201713195","ECCENTRICITY":"0.00016300","BSTAR":"-0.00016651000000","EPHEMERIS_TYPE":"0","NORAD_CAT_ID":"47369","PERIOD":"95.592","FILE":"3409979","LAUNCH_DATE":"2021-01-20","CENTER_NAME":"EARTH","OBJECT_TYPE":"PAYLOAD","MEAN_MOTION":"15.06398843","DECAY_DATE":null,"REF_FRAME":"TEME","APOAPSIS":"548.346","TLE_LINE1":"1 47369U 21005W   22110.79201927 -.00002761  00000-0 -16651-3 0  9990","TIME_SYSTEM":"UTC","EPOCH":"2022-04-20T19:00:30.464928","ELEMENT_SET_NO":"999","MEAN_MOTION_DDOT":"0.0000000000000","MEAN_ELEMENT_THEORY":"SGP4","TLE_LINE2":"2 47369  53.0530 291.3080 0001630  66.5241 293.5919 15.06398843 69464","OBJECT_NAME":"STARLINK-2085","CLASSIFICATION_TYPE":"U","COUNTRY_CODE":"US","PERIAPSIS":"546.088"},{"FILE":"3409979","PERIOD":"95.592","NORAD_CAT_ID":"47370","EPHEMERIS_TYPE":"0","BSTAR":"-0.00003576200000","ECCENTRICITY":"0.00022530","GP_ID":"201714447","OBJECT_ID":"2021-005X","SEMIMAJOR_AXIS":"6925.351","RCS_SIZE":"LARGE","SITE":"AFETR","MEAN_MOTION_DOT":"-0.00000814","MEAN_ANOMALY":"323.2928","RA_OF_ASC_NODE":"271.4934","INCLINATION":"53.0547","REV_AT_EPOCH":"6974","ARG_OF_PERICENTER":"36.8215","PERIAPSIS":"545.655","COUNTRY_CODE":"US","CLASSIFICATION_TYPE":"U","TLE_LINE2":"2 47370  53.0547 271.4934 0002253  36.8215 323.2928 15.06399363 69744","OBJECT_NAME":"STARLINK-2086","MEAN_ELEMENT_THEORY":"SGP4","MEAN_MOTION_DDOT":"0.0000000000000","EPOCH":"2022-04-20T17:59:28.641984","TIME_SYSTEM":"UTC","ELEMENT_SET_NO":"999","TLE_LINE1":"1 47370U 21005X   22110.74963706 -.00000814  00000-0 -35762-4 0  9999","DECAY_DATE":null,"REF_FRAME":"TEME","APOAPSIS":"548.776","MEAN_MOTION":"15.06399363","OBJECT_TYPE":"PAYLOAD","LAUNCH_DATE":"2021-01-20","CENTER_NAME":"EARTH"},{"RCS_SIZE":"LARGE","SITE":"AFETR","MEAN_MOTION_DOT":"0.00001714","SEMIMAJOR_AXIS":"6925.322","OBJECT_ID":"2021-005Y","GP_ID":"201681305","ARG_OF_PERICENTER":"71.9482","REV_AT_EPOCH":"6914","INCLINATION":"53.0544","MEAN_ANOMALY":"288.1669","RA_OF_ASC_NODE":"312.4499","EPHEMERIS_TYPE":"0","NORAD_CAT_ID":"47371","PERIOD":"95.592","FILE":"3409639","ECCENTRICITY":"0.00014890","BSTAR":"0.00013391000000","APOAPSIS":"548.218","REF_FRAME":"TEME","DECAY_DATE":null,"TLE_LINE1":"1 47371U 21005Y   22110.53584596  .00001714  00000-0  13391-3 0  9994","CENTER_NAME":"EARTH","LAUNCH_DATE":"2021-01-20","OBJECT_TYPE":"PAYLOAD","MEAN_MOTION":"15.06408577","MEAN_ELEMENT_THEORY":"SGP4","TLE_LINE2":"2 47371  53.0544 312.4499 0001489  71.9482 288.1669 15.06408577 69143","OBJECT_NAME":"STARLINK-2088","COUNTRY_CODE":"US","PERIAPSIS":"546.156","CLASSIFICATION_TYPE":"U","ELEMENT_SET_NO":"999","EPOCH":"2022-04-20T12:51:37.090944","TIME_SYSTEM":"UTC","MEAN_MOTION_DDOT":"0.0000000000000"},{"MEAN_MOTION":"15.06393271","LAUNCH_DATE":"2021-01-20","CENTER_NAME":"EARTH","OBJECT_TYPE":"PAYLOAD","TLE_LINE1":"1 47372U 21005Z   22110.83208225 -.00002285  00000-0 -13456-3 0  9998","DECAY_DATE":null,"APOAPSIS":"548.161","REF_FRAME":"TEME","MEAN_MOTION_DDOT":"0.0000000000000","EPOCH":"2022-04-20T19:58:11.906400","TIME_SYSTEM":"UTC","ELEMENT_SET_NO":"999","TLE_LINE2":"2 47372  53.0552 306.1106 0001339  88.1562 271.9580 15.06393271 69259","OBJECT_NAME":"STARLINK-2089","COUNTRY_CODE":"US","CLASSIFICATION_TYPE":"U","PERIAPSIS":"546.307","MEAN_ELEMENT_THEORY":"SGP4","MEAN_ANOMALY":"271.9580","RA_OF_ASC_NODE":"306.1106","INCLINATION":"53.0552","REV_AT_EPOCH":"6925","ARG_OF_PERICENTER":"88.1562","GP_ID":"201712945","RCS_SIZE":"LARGE","SITE":"AFETR","MEAN_MOTION_DOT":"-0.00002285","OBJECT_ID":"2021-005Z","SEMIMAJOR_AXIS":"6925.369","BSTAR":"-0.00013456000000","ECCENTRICITY":"0.00013390","NORAD_CAT_ID":"47372","FILE":"3409979","PERIOD":"95.593","EPHEMERIS_TYPE":"0"},{"OBJECT_TYPE":"PAYLOAD","LAUNCH_DATE":"2021-01-20","CENTER_NAME":"EARTH","MEAN_MOTION":"15.06398815","DECAY_DATE":null,"APOAPSIS":"548.349","REF_FRAME":"TEME","TLE_LINE1":"1 47373U 21005AA  22110.66485048 -.00001746  00000-0 -98315-4 0  9999","TIME_SYSTEM":"UTC","EPOCH":"2022-04-20T15:57:23.081472","ELEMENT_SET_NO":"999","MEAN_MOTION_DDOT":"0.0000000000000","MEAN_ELEMENT_THEORY":"SGP4","COUNTRY_CODE":"US","CLASSIFICATION_TYPE":"U","PERIAPSIS":"546.085","TLE_LINE2":"2 47373  53.0541 311.8586 0001635  67.3465 292.7697 15.06398815 69162","OBJECT_NAME":"STARLINK-2092","REV_AT_EPOCH":"6916","ARG_OF_PERICENTER":"67.3465","MEAN_ANOMALY":"292.7697","RA_OF_ASC_NODE":"311.8586","INCLINATION":"53.0541","SEMIMAJOR_AXIS":"6925.352","OBJECT_ID":"2021-005AA","RCS_SIZE":"LARGE","SITE":"AFETR","MEAN_MOTION_DOT":"-0.00001746","GP_ID":"201713696","ECCENTRICITY":"0.00016350","BSTAR":"-0.00009831500000","EPHEMERIS_TYPE":"0","PERIOD":"95.592","FILE":"3409979","NORAD_CAT_ID":"47373"}];
